H1 CPF  1  DLR 2022 03 27 10  5862 technosat            
H2  1704205 6203    42829 2022 03 27 00 00 00 2022 04 03 00 00 00    60 1 1  0 0 0
H9
10 0 59671  57600.000000  0       2404967.138       2627993.254      -5991190.271
10 0 59671  57660.000000  0       2239943.536       2257182.573      -6202474.820
10 0 59671  57720.000000  0       2062232.468       1878391.311      -6387519.100
10 0 59671  57780.000000  0       1872520.388       1493320.713      -6545547.946
10 0 59671  57840.000000  0       1671558.477       1103690.982      -6675900.028
10 0 59671  57900.000000  0       1460159.644        711233.634      -6778030.402
10 0 59671  57960.000000  0       1239195.197        317683.869      -6851512.661
10 0 59671  58020.000000  0       1009591.186        -75227.087      -6896040.563
10 0 59671  58080.000000  0        772324.508       -465779.567      -6911429.108
10 0 59671  58140.000000  0        528418.779       -852272.864      -6897615.166
10 0 59671  58200.000000  0        278939.983      -1233032.518      -6854657.665
10 0 59671  58260.000000  0         24991.901      -1606417.416      -6782737.326
10 0 59671  58320.000000  0       -232288.677      -1970826.737      -6682156.041
10 0 59671  58380.000000  0       -491737.015      -2324706.804      -6553335.783
10 0 59671  58440.000000  0       -752165.657      -2666557.736      -6396816.946
10 0 59671  58500.000000  0      -1012369.769      -2994939.797      -6213256.167
10 0 59671  58560.000000  0      -1271132.615      -3308479.430      -6003423.780
10 0 59671  58620.000000  0      -1527231.171      -3605875.051      -5768200.839
10 0 59671  58680.000000  0      -1779441.842      -3885902.547      -5508575.690
10 0 59671  58740.000000  0      -2026546.282      -4147420.490      -5225640.107
10 0 59671  58800.000000  0      -2267337.285      -4389375.006      -4920584.922
10 0 59671  58860.000000  0      -2500624.705      -4610804.210      -4594695.201
10 0 59671  58920.000000  0      -2725241.345      -4810842.229      -4249344.986
10 0 59671  58980.000000  0      -2940048.798      -4988722.780      -3885991.644
10 0 59671  59040.000000  0      -3143943.215      -5143782.305      -3506169.851
10 0 59671  59100.000000  0      -3335860.996      -5275462.675      -3111485.208
10 0 59671  59160.000000  0      -3514784.358      -5383313.376      -2703607.482
10 0 59671  59220.000000  0      -3679746.739      -5466993.202      -2284263.546
10 0 59671  59280.000000  0      -3829838.006      -5526271.429      -1855229.993
10 0 59671  59340.000000  0      -3964209.431      -5561028.454      -1418325.501
10 0 59671  59400.000000  0      -4082078.376      -5571255.895       -975402.963
10 0 59671  59460.000000  0      -4182732.695      -5557056.152       -528341.431
10 0 59671  59520.000000  0      -4265534.789      -5518641.412        -79037.941
10 0 59671  59580.000000  0      -4329925.340      -5456332.141        370600.765
10 0 59671  59640.000000  0      -4375426.660      -5370555.030        818666.594
10 0 59671  59700.000000  0      -4401645.647      -5261840.413       1263258.467
10 0 59671  59760.000000  0      -4408276.296      -5130819.155       1702490.635
10 0 59671  59820.000000  0      -4395101.779      -4978219.067       2134500.871
10 0 59671  59880.000000  0      -4361996.092      -4804860.891       2557458.536
10 0 59671  59940.000000  0      -4308925.273      -4611653.855       2969572.463
10 0 59671  60000.000000  0      -4235948.165      -4399590.843       3369098.647
10 0 59671  60060.000000  0      -4143216.728      -4169743.202       3754347.706
10 0 59671  60120.000000  0      -4030975.879      -3923255.197       4123692.068
10 0 59671  60180.000000  0      -3899562.863      -3661338.135       4475572.829
10 0 59671  60240.000000  0      -3749406.184      -3385264.230       4808506.198
10 0 59671  60300.000000  0      -3581024.150      -3096360.316       5121089.588
10 0 59671  60360.000000  0      -3395022.981      -2796001.364       5412007.354
10 0 59671  60420.000000  0      -3192094.512      -2485603.869       5680036.120
10 0 59671  60480.000000  0      -2973013.516      -2166619.146       5924049.725
10 0 59671  60540.000000  0      -2738634.628      -1840526.496       6143023.772
10 0 59671  60600.000000  0      -2489888.937      -1508826.304       6336039.708
10 0 59671  60660.000000  0      -2227780.188      -1173033.084       6502288.513
10 0 59671  60720.000000  0      -1953380.580       -834668.513       6641073.833
10 0 59671  60780.000000  0      -1667826.277       -495254.569       6751814.542
10 0 59671  60840.000000  0      -1372312.743       -156306.846       6834046.869
10 0 59671  60900.000000  0      -1068089.828        180672.067       6887426.238
10 0 59671  60960.000000  0       -756456.544        514199.175       6911728.639
10 0 59671  61020.000000  0       -438755.576        842817.528       6906851.499
10 0 59671  61080.000000  0       -116367.578       1165102.492       6872814.101
10 0 59671  61140.000000  0        209294.731       1479667.869       6809757.552
10 0 59671  61200.000000  0        536792.704       1785171.825       6717944.261
10 0 59671  61260.000000  0        864668.028       2080322.551       6597756.889
10 0 59671  61320.000000  0       1191449.116       2363883.659       6449696.912
10 0 59671  61380.000000  0       1515657.614       2634679.336       6274382.728
10 0 59671  61440.000000  0       1835815.010       2891599.249       6072547.343
10 0 59671  61500.000000  0       2150449.324       3133603.181       5845035.586
10 0 59671  61560.000000  0       2458101.882       3359725.352       5592800.866
10 0 59671  61620.000000  0       2757334.133       3569078.422       5316901.450
10 0 59671  61680.000000  0       3046734.456       3760857.130       5018496.203
10 0 59671  61740.000000  0       3324924.831       3934341.457       4698839.873
10 0 59671  61800.000000  0       3590567.401       4088899.431       4359278.114
10 0 59671  61860.000000  0       3842370.951       4223989.637       4001242.122
10 0 59671  61920.000000  0       4079097.399       4339163.412       3626242.907
10 0 59671  61980.000000  0       4299568.311       4434066.497       3235864.857
10 0 59671  62040.000000  0       4502670.766       4508440.013       2831758.876
10 0 59671  62100.000000  0       4687362.952       4562121.198       2415635.560
10 0 59671  62160.000000  0       4852679.682       4595043.731       1989257.947
10 0 59671  62220.000000  0       4997737.566       4607237.489       1554433.952
10 0 59671  62280.000000  0       5121739.857       4598827.810       1113008.560
10 0 59671  62340.000000  0       5223980.857       4570034.317        666855.757
10 0 59671  62400.000000  0       5303849.832       4521169.272        217870.288
10 0 59671  62460.000000  0       5360834.461       4452635.414       -232040.640
10 0 59671  62520.000000  0       5394523.839       4364923.382       -680965.676
10 0 59671  62580.000000  0       5404611.012       4258608.743      -1126997.696
10 0 59671  62640.000000  0       5390895.007       4134348.564      -1568242.167
10 0 59671  62700.000000  0       5353282.341       3992877.589      -2002825.425
10 0 59671  62760.000000  0       5291787.994       3835004.049      -2428902.854
10 0 59671  62820.000000  0       5206535.840       3661605.160      -2844666.891
10 0 59671  62880.000000  0       5097758.547       3473622.320      -3248354.839
10 0 59671  62940.000000  0       4965796.976       3272056.055      -3638256.474
10 0 59671  63000.000000  0       4811099.014       3057960.706      -4012721.405
10 0 59671  63060.000000  0       4634217.883       2832438.839      -4370166.126
10 0 59671  63120.000000  0       4435809.965       2596635.449      -4709080.646
10 0 59671  63180.000000  0       4216632.153       2351732.105      -5028034.760
10 0 59671  63240.000000  0       3977538.746       2098940.970      -5325683.972
10 0 59671  63300.000000  0       3719477.893       1839498.739      -5600774.985
10 0 59671  63360.000000  0       3443487.615       1574660.585      -5852150.799
10 0 59671  63420.000000  0       3150691.399       1305694.062      -6078755.391
10 0 59671  63480.000000  0       2842293.402       1033873.003      -6279637.858
10 0 59671  63540.000000  0       2519573.374        760471.522      -6453956.130
10 0 59671  63600.000000  0       2183881.221        486758.087      -6600980.220
10 0 59671  63660.000000  0       1836631.351        213989.716      -6720095.005
10 0 59671  63720.000000  0       1479296.760        -56593.733      -6810802.697
10 0 59671  63780.000000  0       1113402.674       -323775.188      -6872724.819
10 0 59671  63840.000000  0        740519.980       -586365.782      -6905603.531
10 0 59671  63900.000000  0        362258.554       -843210.046      -6909302.515
10 0 59671  63960.000000  0        -19739.580      -1093190.900      -6883807.462
10 0 59671  64020.000000  0       -403807.263      -1335234.409      -6829226.106
10 0 59671  64080.000000  0       -788259.396      -1568314.335      -6745787.872
10 0 59671  64140.000000  0      -1171400.281      -1791456.460      -6633842.983
10 0 59671  64200.000000  0      -1551531.025      -2003742.670      -6493861.088
10 0 59671  64260.000000  0      -1926956.998      -2204314.712      -6326429.380
10 0 59671  64320.000000  0      -2295995.283      -2392377.624      -6132250.322
10 0 59671  64380.000000  0      -2656982.149      -2567202.920      -5912138.942
10 0 59671  64440.000000  0      -3008280.547      -2728131.461      -5667019.714
10 0 59671  64500.000000  0      -3348287.620      -2874576.043      -5397922.964
10 0 59671  64560.000000  0      -3675442.152      -3006023.629      -5105980.750
10 0 59671  64620.000000  0      -3988231.833      -3122037.203      -4792422.265
10 0 59671  64680.000000  0      -4285200.358      -3222257.237      -4458568.867
10 0 59671  64740.000000  0      -4564954.371      -3306402.812      -4105828.703
99
